STARLINK-3366           
1 51104U 22005A   22286.94329479  .00000143  00000+0  27102-4 0  9990
2 51104  53.2159 108.0230 0001823  49.0861 311.0289 15.08834097 42379
STARLINK-3350           
1 51105U 22005B   22286.85128449  .00000931  00000+0  76545-4 0  9995
2 51105  53.2159 108.4510 0001646  64.5797 295.5366 15.08844850 41254
STARLINK-3176           
1 51106U 22005C   22287.22665612  .00002272  00000+0  16081-3 0  9994
2 51106  53.2160 106.7406 0002212  43.9150 316.2018 15.08843467 42413
STARLINK-3368           
1 51107U 22005D   22286.82925350  .00002268  00000+0  16053-3 0  9992
2 51107  53.2165 118.5485 0001792  47.3358 312.7784 15.08843385 42226
STARLINK-3362           
1 51108U 22005E   22286.98009965  .00007987  00000+0  51926-3 0  9996
2 51108  53.2145 107.8695 0002129  37.5723 322.5417 15.08848307 42378
STARLINK-3358           
1 51109U 22005F   22286.80441571  .00001340  00000+0  10228-3 0  9998
2 51109  53.2157 108.6376 0001909  41.2759 318.8377 15.08830661 41010
STARLINK-3344           
1 51110U 22005G   22286.84026119  .00003188  00000+0  21835-3 0  9999
2 51110  53.2160 108.4980 0001894  58.4769 301.6408 15.08836661 41256
STARLINK-3173           
1 51111U 22005H   22286.81449253  .00002002  00000+0  14380-3 0  9996
2 51111  53.2184 108.6076 0001474  50.6738 309.4385 15.08845677 41241
STARLINK-3374           
1 51112U 22005J   22286.77033575  .00002984  00000+0  20550-3 0  9993
2 51112  53.2188 108.8160 0001966  40.1669 319.9468 15.08837646 41240
STARLINK-3372           
1 51113U 22005K   22286.62681460  .00008335  00000+0  54113-3 0  9998
2 51113  53.2146 109.4372 0001807  47.7081 312.4064 15.08843863 41217
STARLINK-3375           
1 51114U 22005L   22286.77769252  .00002202  00000+0  15641-3 0  9991
2 51114  53.2162 108.7805 0002014  49.2381 310.8786 15.08840025 41243
STARLINK-3397           
1 51115U 22005M   22286.88442052  .00010896  00000+0  70126-3 0  9997
2 51115  53.2148 108.2789 0001745  50.8283 309.2864 15.08860838 41257
STARLINK-3243           
1 51116U 22005N   22287.03161824  .00006788  00000+0  44404-3 0  9996
2 51116  53.2163 107.6253 0001969  48.6734 311.4427 15.08851151 42381
STARLINK-3391           
1 51117U 22005P   22286.80345031  .00001305  00000+0  10006-3 0  9996
2 51117  53.2159 108.6532 0002002  48.5244 311.5920 15.08838298 41242
STARLINK-3394           
1 51118U 22005Q   22286.62314021  .00000873  00000+0  72933-4 0  9999
2 51118  53.2156 109.4567 0001831  52.4185 307.6974 15.08834637 41219
STARLINK-3390           
1 51119U 22005R   22286.79977079  .00001492  00000+0  11185-3 0  9995
2 51119  53.2175 108.6815 0002033  54.6545 305.4637 15.08836154 41248
STARLINK-3398           
1 51120U 22005S   22286.92489336 -.00000004  00000+0  17863-4 0  9995
2 51120  53.2177 108.1209 0002059  53.7352 306.3830 15.08836246 42370
STARLINK-3399           
1 51121U 22005T   22287.20458073 -.00000855  00000+0 -35645-4 0  9995
2 51121  53.2157 106.8418 0001946  51.4034 308.7132 15.08834517 42417
STARLINK-3373           
1 51122U 22005U   22286.79608964  .00000068  00000+0  22384-4 0  9995
2 51122  53.2176 108.7002 0001492  58.6083 301.5055 15.08838343 41244
STARLINK-3392           
1 51123U 22005V   22286.78873278  .00000369  00000+0  41273-4 0  9999
2 51123  53.2191 108.7363 0001620  33.9095 326.2000 15.08839758 41249
STARLINK-3389           
1 51124U 22005W   22286.83198271  .00002866  00000+0  19804-3 0  9997
2 51124  53.2157 118.5327 0001673  53.1377 306.9769 15.08846719 41114
STARLINK-3387           
1 51125U 22005X   22286.82093557  .00000417  00000+0  44310-4 0  9999
2 51125  53.2164 118.5883 0001933  44.0319 316.0827 15.08837915 41096
STARLINK-3386           
1 51126U 22005Y   22287.22573775  .00001802  00000+0  13132-3 0  9996
2 51126  53.2157 116.7660 0002027  56.2523 303.8662 15.08838761 42282
STARLINK-3370           
1 51127U 22005Z   22287.22204479 -.00001082  00000+0 -49861-4 0  9990
2 51127  53.2172 116.7860 0001937  46.2302 313.8850 15.08856988 42286
STARLINK-3400           
1 51128U 22005AA  22286.80621751  .00002247  00000+0  15928-3 0  9998
2 51128  53.2160 118.6572 0001798  52.8882 307.2274 15.08834864 41090
STARLINK-3396           
1 51129U 22005AB  22286.83293341  .00003289  00000+0  22469-3 0  9997
2 51129  53.2151 118.5307 0002072  45.8849 314.2314 15.08835522 41104
STARLINK-3395           
1 51130U 22005AC  22286.81726024  .00005438  00000+0  35941-3 0  9993
2 51130  53.2160 118.6031 0002007  49.6586 310.4582 15.08851997 41096
STARLINK-3388           
1 51131U 22005AD  22287.00861677  .00004234  00000+0  28398-3 0  9991
2 51131  53.2163 117.7462 0002227  46.0245 314.0931 15.08841825 42240
STARLINK-3393           
1 51132U 22005AE  22286.94605403 -.00001504  00000+0 -76430-4 0  9997
2 51132  53.2154 118.0304 0001516  44.0115 316.0997 15.08844834 42230
STARLINK-3356           
1 51133U 22005AF  22286.80253784  .00002041  00000+0  14633-3 0  9995
2 51133  53.2163 118.6685 0001938  48.0344 312.0813 15.08836779 41090
STARLINK-3183           
1 51134U 22005AG  22286.77129213  .00000053  00000+0  21430-4 0  9996
2 51134  53.2179 108.7879 0002063  41.1590 318.9558 15.08836086 41249
STARLINK-3363           
1 51135U 22005AH  22286.79886581  .00000322  00000+0  38340-4 0  9994
2 51135  53.2175 118.6887 0001709  57.9444 302.1714 15.08846397 41092
STARLINK-3253           
1 51136U 22005AJ  22286.79981741  .00000958  00000+0  78266-4 0  9995
2 51136  53.2152 118.6786 0001821  44.7235 315.3904 15.08836760 41093
STARLINK-3180           
1 51137U 22005AK  22286.65534807  .00002017  00000+0  14485-3 0  9998
2 51137  53.2177 119.3315 0001962  44.8197 315.2953 15.08827323 41088
STARLINK-3177           
1 51138U 22005AL  22286.99391029  .00009365  00000+0  60550-3 0  9990
2 51138  53.2168 117.7912 0002038  48.6636 311.4531 15.08852059 42242
STARLINK-3172           
1 51139U 22005AM  22287.04541954  .00001669  00000+0  12296-3 0  9995
2 51139  53.2193 117.5753 0001595  34.8896 325.2200 15.08836730 42259
STARLINK-3175           
1 51140U 22005AN  22286.65901132  .00001855  00000+0  13461-3 0  9993
2 51140  53.2164 119.3024 0001900  62.5520 297.5665 15.08842679 41087
STARLINK-3179           
1 51141U 22005AP  22286.97182168  .00000539  00000+0  51935-4 0  9996
2 51141  53.2155 117.9079 0002124  42.9042 317.2116 15.08846201 42247
STARLINK-3369           
1 51142U 22005AQ  22287.03256940  .00003885  00000+0  26201-3 0  9999
2 51142  53.2172 107.6352 0001815  46.6116 313.5027 15.08846408 42425
STARLINK-3184           
1 51143U 22005AR  22286.95616691  .00000802  00000+0  68479-4 0  9993
2 51143  53.2161 127.9760 0001681  66.6940 293.4229 15.08849081 42093
STARLINK-3185           
1 51144U 22005AS  22286.84301982  .00000789  00000+0  67689-4 0  9992
2 51144  53.2188 118.4884 0001534  44.3734 315.7381 15.08832743 41112
STARLINK-3365           
1 51145U 22005AT  22286.82002208  .00010008  00000+0  64568-3 0  9997
2 51145  53.2144 128.5920 0001415  92.1875 267.9279 15.08856862 40967
STARLINK-3354           
1 51146U 22005AU  22286.91662292  .00003519  00000+0  23907-3 0  9994
2 51146  53.2173 118.1538 0001819  50.5457 309.5696 15.08842176 42233
STARLINK-3352           
1 51147U 22005AV  22286.95985668  .00004259  00000+0  28548-3 0  9992
2 51147  53.2172 127.9661 0001628  62.2499 297.8659 15.08844686 42104
STARLINK-3359           
1 51148U 22005AW  22286.94882475  .00007471  00000+0  48737-3 0  9995
2 51148  53.2159 128.0023 0001921  58.0104 302.1074 15.08812935 42097
STARLINK-3360           
1 51149U 22005AX  22286.68018473  .00003148  00000+0  21586-3 0  9996
2 51149  53.2161 129.2009 0001392  61.8794 298.2339 15.08830863 40948
STARLINK-3357           
1 51150U 22005AY  22286.83566185  .00004474  00000+0  29916-3 0  9991
2 51150  53.2187 118.5176 0001313  65.7474 294.3655 15.08824263 41110
STARLINK-3361           
1 51151U 22005AZ  22287.07025164  .00002549  00000+0  17818-3 0  9995
2 51151  53.2169 127.4428 0001736  49.7164 310.3979 15.08842770 42119
STARLINK-3364           
1 51152U 22005BA  22287.07393303  .00004644  00000+0  30965-3 0  9995
2 51152  53.2159 127.4347 0001751  56.9382 303.1778 15.08843923 42116
